{"type": "FeatureCollection", "features": [ {"type": "Feature", "properties": {"norad_id": 66571, "name": "STARLINK-35836", "group": "last-30-days", "lat": -35.733489548508054, "lon": 52.70473186011199, "alt_km": 340.4722312955191, "timestamp": "2025-12-02T10:50:46.053406+00:00", "meta": {"OBJECT_NAME": "STARLINK-35836", "OBJECT_ID": "2025-268Q", "EPOCH": "2025-12-02T04:00:03.998880", "MEAN_MOTION": 15.78228805, "ECCENTRICITY": 0.0001717, "INCLINATION": 42.9973, "RA_OF_ASC_NODE": 183.8938, "ARG_OF_PERICENTER": 277.7712, "MEAN_ANOMALY": 139.2445, "EPHEMERIS_TYPE": 0, "CLASSIFICATION_TYPE": "U", "NORAD_CAT_ID": 66571, "ELEMENT_SET_NO": 999, "REV_AT_EPOCH": 297, "BSTAR": -0.010594, "MEAN_MOTION_DOT": -0.01664048, "MEAN_MOTION_DDOT": 0}, "tle": {"line1": "1 66571U 25268Q   25336.16671295 -.01664048  00000+0 -10594-1 0  9994", "line2": "2 66571  42.9973 183.8938 0001717 277.7712 139.2445 15.78228805  2972"}}, "geometry": {"type": "Point", "coordinates": [52.70473186011199, -35.733489548508054]}}, {"type": "Feature", "properties": {"norad_id": 66572, "name": "STARLINK-35870", "group": "last-30-days", "lat": -36.61125403673453, "lon": 55.03221745281017, "alt_km": 340.6643084387215, "timestamp": "2025-12-02T10:50:46.053418+00:00", "meta": {"OBJECT_NAME": "STARLINK-35870", "OBJECT_ID": "2025-268R", "EPOCH": "2025-12-02T04:00:03.998880", "MEAN_MOTION": 15.78170004, "ECCENTRICITY": 0.000175, "INCLINATION": 42.9978, "RA_OF_ASC_NODE": 183.8888, "ARG_OF_PERICENTER": 278.2405, "MEAN_ANOMALY": 140.9198, "EPHEMERIS_TYPE": 0, "CLASSIFICATION_TYPE": "U", "NORAD_CAT_ID": 66572, "ELEMENT_SET_NO": 999, "REV_AT_EPOCH": 297, "BSTAR": -0.010705, "MEAN_MOTION_DOT": -0.01675591, "MEAN_MOTION_DDOT": 0}, "tle": {"line1": "1 66572U 25268R   25336.16671295 -.01675591  00000+0 -10705-1 0  9994", "line2": "2 66572  42.9978 183.8888 0001750 278.2405 140.9198 15.78170004  2975"}}, "geometry": {"type": "Point", "coordinates": [55.03221745281017, -36.61125403673453]}}, {"type": "Feature", "properties": {"norad_id": 66573, "name": "STARLINK-35650", "group": "last-30-days", "lat": -37.419889932944386, "lon": 57.346587199989145, "alt_km": 340.81095411729075, "timestamp": "2025-12-02T10:50:46.053430+00:00", "meta": {"OBJECT_NAME": "STARLINK-35650", "OBJECT_ID": "2025-268S", "EPOCH": "2025-12-02T04:00:03.998880", "MEAN_MOTION": 15.78136265, "ECCENTRICITY": 0.0001841, "INCLINATION": 42.9973, "RA_OF_ASC_NODE": 183.8833, "ARG_OF_PERICENTER": 281.9493, "MEAN_ANOMALY": 139.2761, "EPHEMERIS_TYPE": 0, "CLASSIFICATION_TYPE": "U", "NORAD_CAT_ID": 66573, "ELEMENT_SET_NO": 999, "REV_AT_EPOCH": 297, "BSTAR": -0.010826, "MEAN_MOTION_DOT": -0.01690182, "MEAN_MOTION_DDOT": 0}, "tle": {"line1": "1 66573U 25268S   25336.16671295 -.01690182  00000+0 -10826-1 0  9992", "line2": "2 66573  42.9973 183.8833 0001841 281.9493 139.2761 15.78136265  2978"}}, "geometry": {"type": "Point", "coordinates": [57.346587199989145, -37.419889932944386]}}, {"type": "Feature", "properties": {"norad_id": 66574, "name": "STARLINK-35812", "group": "last-30-days", "lat": -38.15908912948208, "lon": 59.63326712207382, "alt_km": 340.7392738780309, "timestamp": "2025-12-02T10:50:46.053439+00:00", "meta": {"OBJECT_NAME": "STARLINK-35812", "OBJECT_ID": "2025-268T", "EPOCH": "2025-12-02T04:00:03.998880", "MEAN_MOTION": 15.78130087, "ECCENTRICITY": 0.0001781, "INCLINATION": 42.9975, "RA_OF_ASC_NODE": 183.878, "ARG_OF_PERICENTER": 272.9764, "MEAN_ANOMALY": 150.2118, "EPHEMERIS_TYPE": 0, "CLASSIFICATION_TYPE": "U", "NORAD_CAT_ID": 66574, "ELEMENT_SET_NO": 999, "REV_AT_EPOCH": 297, "BSTAR": -0.010864, "MEAN_MOTION_DOT": -0.0169492, "MEAN_MOTION_DDOT": 0}, "tle": {"line1": "1 66574U 25268T   25336.16671295 -.01694920  00000+0 -10864-1 0  9999", "line2": "2 66574  42.9975 183.8780 0001781 272.9764 150.2118 15.78130087  2971"}}, "geometry": {"type": "Point", "coordinates": [59.63326712207382, -38.15908912948208]}}, {"type": "Feature", "properties": {"norad_id": 66575, "name": "STARLINK-35810", "group": "last-30-days", "lat": -38.88684000242239, "lon": 62.08659803730459, "alt_km": 341.0040526323928, "timestamp": "2025-12-02T10:50:46.053451+00:00", "meta": {"OBJECT_NAME": "STARLINK-35810", "OBJECT_ID": "2025-268U", "EPOCH": "2025-12-02T04:00:03.998880", "MEAN_MOTION": 15.78075123, "ECCENTRICITY": 0.0001652, "INCLINATION": 42.9974, "RA_OF_ASC_NODE": 183.8728, "ARG_OF_PERICENTER": 273.901, "MEAN_ANOMALY": 151.404, "EPHEMERIS_TYPE": 0, "CLASSIFICATION_TYPE": "U", "NORAD_CAT_ID": 66575, "ELEMENT_SET_NO": 999, "REV_AT_EPOCH": 297, "BSTAR": -0.010931, "MEAN_MOTION_DOT": -0.0170028, "MEAN_MOTION_DDOT": 0}, "tle": {"line1": "1 66575U 25268U   25336.16671295 -.01700280  00000+0 -10931-1 0  9992", "line2": "2 66575  42.9974 183.8728 0001652 273.9010 151.4040 15.78075123  2971"}}, "geometry": {"type": "Point", "coordinates": [62.08659803730459, -38.88684000242239]}}, {"type": "Feature", "properties": {"norad_id": 66576, "name": "STARLINK-35814", "group": "last-30-days", "lat": -39.5549742531978, "lon": 64.56042178570719, "alt_km": 341.0487105503589, "timestamp": "2025-12-02T10:50:46.053461+00:00", "meta": {"OBJECT_NAME": "STARLINK-35814", "OBJECT_ID": "2025-268V", "EPOCH": "2025-12-02T04:00:03.998880", "MEAN_MOTION": 15.78032909, "ECCENTRICITY": 0.0001896, "INCLINATION": 42.9975, "RA_OF_ASC_NODE": 183.8673, "ARG_OF_PERICENTER": 277.0444, "MEAN_ANOMALY": 150.3471, "EPHEMERIS_TYPE": 0, "CLASSIFICATION_TYPE": "U", "NORAD_CAT_ID": 66576, "ELEMENT_SET_NO": 999, "REV_AT_EPOCH": 297, "BSTAR": -0.011044, "MEAN_MOTION_DOT": -0.01713076, "MEAN_MOTION_DDOT": 0}, "tle": {"line1": "1 66576U 25268V   25336.16671295 -.01713076  00000+0 -11044-1 0  9996", "line2": "2 66576  42.9975 183.8673 0001896 277.0444 150.3471 15.78032909  2979"}}, "geometry": {"type": "Point", "coordinates": [64.56042178570719, -39.5549742531978]}}, {"type": "Feature", "properties": {"norad_id": 66577, "name": "STARLINK-35815", "group": "last-30-days", "lat": -40.17553103496289, "lon": 67.10811330447649, "alt_km": 341.277697606587, "timestamp": "2025-12-02T10:50:46.053471+00:00", "meta": {"OBJECT_NAME": "STARLINK-35815", "OBJECT_ID": "2025-268W", "EPOCH": "2025-12-02T04:00:03.998880", "MEAN_MOTION": 15.77986635, "ECCENTRICITY": 0.0001699, "INCLINATION": 42.9974, "RA_OF_ASC_NODE": 183.8621, "ARG_OF_PERICENTER": 271.2275, "MEAN_ANOMALY": 158.2733, "EPHEMERIS_TYPE": 0, "CLASSIFICATION_TYPE": "U", "NORAD_CAT_ID": 66577, "ELEMENT_SET_NO": 999, "REV_AT_EPOCH": 297, "BSTAR": -0.011219, "MEAN_MOTION_DOT": -0.01733662, "MEAN_MOTION_DDOT": 0}, "tle": {"line1": "1 66577U 25268W   25336.16671295 -.01733662  00000+0 -11219-1 0  9994", "line2": "2 66577  42.9974 183.8621 0001699 271.2275 158.2733 15.77986635  2972"}}, "geometry": {"type": "Point", "coordinates": [67.10811330447649, -40.17553103496289]}}, {"type": "Feature", "properties": {"norad_id": 66578, "name": "STARLINK-35743", "group": "last-30-days", "lat": -40.71207351708699, "lon": 69.56885614126662, "alt_km": 341.2356864474996, "timestamp": "2025-12-02T10:50:46.053481+00:00", "meta": {"OBJECT_NAME": "STARLINK-35743", "OBJECT_ID": "2025-268X", "EPOCH": "2025-12-02T04:00:03.998880", "MEAN_MOTION": 15.77985856, "ECCENTRICITY": 0.0001859, "INCLINATION": 42.9974, "RA_OF_ASC_NODE": 183.8573, "ARG_OF_PERICENTER": 273.1529, "MEAN_ANOMALY": 158.3104, "EPHEMERIS_TYPE": 0, "CLASSIFICATION_TYPE": "U", "NORAD_CAT_ID": 66578, "ELEMENT_SET_NO": 999, "REV_AT_EPOCH": 297, "BSTAR": -0.011349, "MEAN_MOTION_DOT": -0.01751383, "MEAN_MOTION_DDOT": 0}, "tle": {"line1": "1 66578U 25268X   25336.16671295 -.01751383  00000+0 -11349-1 0  9999", "line2": "2 66578  42.9974 183.8573 0001859 273.1529 158.3104 15.77985856  2977"}}, "geometry": {"type": "Point", "coordinates": [69.56885614126662, -40.71207351708699]}}, {"type": "Feature", "properties": {"norad_id": 66579, "name": "STARLINK-35868", "group": "last-30-days", "lat": -41.224046039274185, "lon": 72.22529876170694, "alt_km": 341.59333201238314, "timestamp": "2025-12-02T10:50:46.053490+00:00", "meta": {"OBJECT_NAME": "STARLINK-35868", "OBJECT_ID": "2025-268Y", "EPOCH": "2025-12-02T04:00:03.998880", "MEAN_MOTION": 15.77931944, "ECCENTRICITY": 0.0001712, "INCLINATION": 42.9976, "RA_OF_ASC_NODE": 183.8517, "ARG_OF_PERICENTER": 276.4957, "MEAN_ANOMALY": 157.1149, "EPHEMERIS_TYPE": 0, "CLASSIFICATION_TYPE": "U", "NORAD_CAT_ID": 66579, "ELEMENT_SET_NO": 999, "REV_AT_EPOCH": 297, "BSTAR": -0.011673, "MEAN_MOTION_DOT": -0.01791294, "MEAN_MOTION_DDOT": 0}, "tle": {"line1": "1 66579U 25268Y   25336.16671295 -.01791294  00000+0 -11673-1 0  9995", "line2": "2 66579  42.9976 183.8517 0001712 276.4957 157.1149 15.77931944  2972"}}, "geometry": {"type": "Point", "coordinates": [72.22529876170694, -41.224046039274185]}}, {"type": "Feature", "properties": {"norad_id": 66580, "name": "STARLINK-35872", "group": "last-30-days", "lat": -41.64891337847343, "lon": 74.76253405844818, "alt_km": 341.6455141028473, "timestamp": "2025-12-02T10:50:46.053502+00:00", "meta": {"OBJECT_NAME": "STARLINK-35872", "OBJECT_ID": "2025-268Z", "EPOCH": "2025-12-02T04:00:03.998880", "MEAN_MOTION": 15.77936409, "ECCENTRICITY": 0.0001664, "INCLINATION": 42.9975, "RA_OF_ASC_NODE": 183.8469, "ARG_OF_PERICENTER": 272.1074, "MEAN_ANOMALY": 163.4649, "EPHEMERIS_TYPE": 0, "CLASSIFICATION_TYPE": "U", "NORAD_CAT_ID": 66580, "ELEMENT_SET_NO": 999, "REV_AT_EPOCH": 297, "BSTAR": -0.011946, "MEAN_MOTION_DOT": -0.01828185, "MEAN_MOTION_DDOT": 0}, "tle": {"line1": "1 66580U 25268Z   25336.16671295 -.01828185  00000+0 -11946-1 0  9990", "line2": "2 66580  42.9975 183.8469 0001664 272.1074 163.4649 15.77936409  2974"}}, "geometry": {"type": "Point", "coordinates": [74.76253405844818, -41.64891337847343]}}]}